[{"OBJECT_ID":"2012-067A","OBJECT_NAME":"CHINASAT 12","NORAD_CAT_ID":"39017","OBJECT_TYPE":"PAYLOAD","PERIOD":"1436.096","INCLINATION":"0.0117","APOGEE":"35799.112","PERIGEE":"35774.058","ECCENTRICITY":"0.0002971","MEAN_MOTION":"1.00271826","TLE_LINE1":"1 39017U 12067A   16239.23462874 -.00000235  00000-0  00000+0 0  9993","TLE_LINE2":"2 39017   0.0117 111.0490 0002971  46.0930 349.7295  1.00271826 13794","LAUNCH_DATE":"2012-11-27","LAUNCH_SITE":"Xichang Space Center, China","OWNER":"PEOPLES REPUBLIC OF CHINA","ORBIT_TYPE":"Geosynchronous","OPERATIONAL_STATUS":"Operational","satInfo":{"lng":63.005656288981484,"lat":-0.770005843315908,"elevation":-9.324911813691207,"azimuth":251.9943437110185,"range":42727.19881946117,"height":35788.24115232216,"velocity":3.074524530586912},"x":267,"y":-133,"dx":1.3955344832465137,"dy":-2.7395591972524627},{"OBJECT_ID":"2012-069A","OBJECT_NAME":"EUTE 70B","NORAD_CAT_ID":"39020","OBJECT_TYPE":"PAYLOAD","PERIOD":"1436.069","INCLINATION":"0.0624","APOGEE":"35796.378","PERIGEE":"35775.743","ECCENTRICITY":"0.0002447","MEAN_MOTION":"1.00273696","TLE_LINE1":"1 39020U 12069A   16238.87486356 -.00000072 +00000-0 +00000-0 0  9999","TLE_LINE2":"2 39020 000.0624 013.1367 0002447 133.0370 213.8355 01.00273696013581","LAUNCH_DATE":"2012-12-03","LAUNCH_SITE":"SEA LAUNCH","OWNER":"EUROPEAN TELECOMMUNICATIONS SATELLITE ORGANIZATION (EUTELSAT)","ORBIT_TYPE":"Geosynchronous","OPERATIONAL_STATUS":"Operational","satInfo":{"lng":79.73653309153573,"lat":0.4522312625403334,"elevation":-8.132234393109295,"azimuth":235.26346690846427,"range":42589.78996830263,"height":35784.69185731167,"velocity":3.074857554571516},"x":295,"y":-53,"dx":0.5478622261945345,"dy":-3.0256562861658116},{"OBJECT_ID":"2012-069B","OBJECT_NAME":"BLOCK DM-SL R/B","NORAD_CAT_ID":"39021","OBJECT_TYPE":"ROCKET BODY","PERIOD":"648.940","INCLINATION":"0.6598","APOGEE":"35533.889","PERIGEE":"1368.334","ECCENTRICITY":"0.6880103","MEAN_MOTION":"2.21900068","TLE_LINE1":"1 39021U 12069B   16238.86503783 -.00000142 +00000-0 +00000-0 0  9991","TLE_LINE2":"2 39021 000.6598 054.6292 6880103 055.1264 332.3339 02.21900068030223","LAUNCH_DATE":"2012-12-03","LAUNCH_SITE":"SEA LAUNCH","OWNER":"SEA LAUNCH DEMO","ORBIT_TYPE":"Highly Elliptical Orbit","OPERATIONAL_STATUS":"N/A, derelict rocket body","satInfo":{"lng":17.489933729465765,"lat":-1.4893759350602442,"elevation":-30.23047729591084,"azimuth":297.51006627053425,"range":13213.748351143347,"height":5042.479412736547,"velocity":7.331046672088621},"x":13,"y":-40,"dx":6.992130675568947,"dy":-2.2032598403523327},{"OBJECT_ID":"2012-070A","OBJECT_NAME":"YAMAL 402","NORAD_CAT_ID":"39022","OBJECT_TYPE":"PAYLOAD","PERIOD":"1436.070","INCLINATION":"0.0439","APOGEE":"35797.336","PERIGEE":"35774.829","ECCENTRICITY":"0.0002669","MEAN_MOTION":"1.00273618","TLE_LINE1":"1 39022U 12070A   16238.94191339  .00000058  00000-0  10000-3 0  9992","TLE_LINE2":"2 39022   0.0439 273.2122 0002669 216.4198 238.9634  1.00273618 13688","LAUNCH_DATE":"2012-12-08","LAUNCH_SITE":"TYURATAM MISSILE AND SPACE COMPLEX","OWNER":"COMMONWEALTH OF INDEPENDENT STATES","ORBIT_TYPE":"Geosynchronous","OPERATIONAL_STATUS":"Operational","satInfo":{"lng":95.09403552432138,"lat":-1.1363841754348227,"elevation":-9.684140834921575,"azimuth":219.90596447567862,"range":42756.28415606282,"height":35777.15574673128,"velocity":3.0753270369747767},"x":299,"y":26,"dx":-0.27306015978067766,"dy":-3.063180460483615},{"OBJECT_ID":"2012-075A","OBJECT_NAME":"SKYNET 5D","NORAD_CAT_ID":"39034","OBJECT_TYPE":"PAYLOAD","PERIOD":"1436.105","INCLINATION":"0.071","APOGEE":"35801.968","PERIGEE":"35771.542","ECCENTRICITY":"0.0003608","MEAN_MOTION":"1.00271219","TLE_LINE1":"1 39034U 12075A   16238.96226713 +.00000072 +00000-0 +00000-0 0  9999","TLE_LINE2":"2 39034 000.0710 358.7882 0003608 169.4545 205.5358 01.00271219013242","LAUNCH_DATE":"2012-12-19","LAUNCH_SITE":"FRENCH GUIANA","OWNER":"UNITED KINGDOM","ORBIT_TYPE":"Geosynchronous","OPERATIONAL_STATUS":"Operational","satInfo":{"lng":96.85775311371873,"lat":0.10130676640783261,"elevation":-8.47600080252386,"azimuth":218.14224688628127,"range":42624.57423554187,"height":35780.94420493818,"velocity":3.0749799816374623},"x":298,"y":35,"dx":-0.3671673676595266,"dy":-3.052980512809917},{"OBJECT_ID":"2012-075B","OBJECT_NAME":"MEXSAT 3","NORAD_CAT_ID":"39035","OBJECT_TYPE":"PAYLOAD","PERIOD":"1436.097","INCLINATION":"0.0555","APOGEE":"35796.670","PERIGEE":"35776.549","ECCENTRICITY":"0.0002386","MEAN_MOTION":"1.0027174","TLE_LINE1":"1 39035U 12075B   16238.39095755 -.00000052  00000-0  00000+0 0  9995","TLE_LINE2":"2 39035   0.0555 253.4566 0002386 266.8283 199.7187  1.00271740 13550","LAUNCH_DATE":"2012-12-19","LAUNCH_SITE":"FRENCH GUIANA","OWNER":"MEXICO","ORBIT_TYPE":"Geosynchronous","OPERATIONAL_STATUS":"Operational","satInfo":{"lng":-105.66888349870005,"lat":1.0323250891914542,"elevation":-7.565581465181679,"azimuth":60.66888349870003,"range":42521.02298226196,"height":35779.568098732525,"velocity":3.0749960804617715},"x":-289,"y":79,"dx":-0.830487506883276,"dy":2.960724809192178},{"OBJECT_ID":"2013-006A","OBJECT_NAME":"AMAZONAS 3","NORAD_CAT_ID":"39078","OBJECT_TYPE":"PAYLOAD","PERIOD":"1436.102","INCLINATION":"0.0493","APOGEE":"35804.386","PERIGEE":"35769.035","ECCENTRICITY":"0.0004192","MEAN_MOTION":"1.00271379","TLE_LINE1":"1 39078U 13006A   16239.23904633 -.00000311  00000-0  00000+0 0  9993","TLE_LINE2":"2 39078   0.0493 241.5831 0004192 311.7816 166.6169  1.00271379 13056","LAUNCH_DATE":"2013-02-07","LAUNCH_SITE":"FRENCH GUIANA","OWNER":"SPAIN","ORBIT_TYPE":"Geosynchronous","OPERATIONAL_STATUS":"Operational","satInfo":{"lng":-71.2400713453583,"lat":1.864092380525507,"elevation":-6.746635618334116,"azimuth":26.240071345358288,"range":42446.74157105758,"height":35796.97260356334,"velocity":3.074385881835014},"x":-284,"y":-95,"dx":0.988733419304621,"dy":2.9110573295585658},{"OBJECT_ID":"2013-006B","OBJECT_NAME":"AZERSPACE 1","NORAD_CAT_ID":"39079","OBJECT_TYPE":"PAYLOAD","PERIOD":"1436.100","INCLINATION":"0.0145","APOGEE":"35793.204","PERIGEE":"35780.116","ECCENTRICITY":"0.0001552","MEAN_MOTION":"1.00271559","TLE_LINE1":"1 39079U 13006B   16239.12196480  .00000105  00000-0  00000+0 0  9995","TLE_LINE2":"2 39079   0.0145 225.0070 0001552 333.9463 225.7231  1.00271559 13017","LAUNCH_DATE":"2013-02-07","LAUNCH_SITE":"FRENCH GUIANA","OWNER":"AZERBAIJAN","ORBIT_TYPE":"Geosynchronous","OPERATIONAL_STATUS":"Operational","satInfo":{"lng":100.22959450595945,"lat":-1.5199307167681773,"elevation":-10.05696372863617,"azimuth":214.77040549404055,"range":42801.02502944335,"height":35780.052186844165,"velocity":3.074849425121804},"x":295,"y":52,"dx":-0.546071964367887,"dy":-3.025971645092413},{"OBJECT_ID":"2013-012A","OBJECT_NAME":"EUTE 117 WEST A(SATMEX 8","NORAD_CAT_ID":"39122","OBJECT_TYPE":"PAYLOAD","PERIOD":"1436.106","INCLINATION":"0.0619","APOGEE":"35796.414","PERIGEE":"35777.145","ECCENTRICITY":"0.0002285","MEAN_MOTION":"1.00271131","TLE_LINE1":"1 39122U 13012A   16238.39647380 -.00000039  00000-0  00000+0 0  9996","TLE_LINE2":"2 39122   0.0619 270.6672 0002285 247.3268 202.0101  1.00271131 12548","LAUNCH_DATE":"2013-03-26","LAUNCH_SITE":"TYURATAM MISSILE AND SPACE COMPLEX","OWNER":"EUROPEAN TELECOMMUNICATIONS SATELLITE ORGANIZATION (EUTELSAT)","ORBIT_TYPE":"Geosynchronous","OPERATIONAL_STATUS":"Operational","satInfo":{"lng":-106.30616506676986,"lat":0.43174629740608966,"elevation":-8.153420427051925,"azimuth":61.30616506676985,"range":42586.353330782425,"height":35778.943024140346,"velocity":3.075003542771237},"x":-288,"y":82,"dx":-0.8633686925219574,"dy":2.9513117911919413},{"OBJECT_ID":"2013-014A","OBJECT_NAME":"ANIK G1","NORAD_CAT_ID":"39127","OBJECT_TYPE":"PAYLOAD","PERIOD":"1436.101","INCLINATION":"0.039","APOGEE":"35794.444","PERIGEE":"35778.944","ECCENTRICITY":"0.0001838","MEAN_MOTION":"1.00271438","TLE_LINE1":"1 39127U 13014A   16238.37010704 -.00000100  00000-0  00000+0 0  9994","TLE_LINE2":"2 39127   0.0390 292.8306 0001838 272.9347 154.2200  1.00271438 12339","LAUNCH_DATE":"2013-04-15","LAUNCH_SITE":"TYURATAM MISSILE AND SPACE COMPLEX","OWNER":"CANADA","ORBIT_TYPE":"Geosynchronous","OPERATIONAL_STATUS":"Operational","satInfo":{"lng":-105.35552227232166,"lat":-0.38768125851909446,"elevation":-8.953938133730128,"azimuth":60.35552227232165,"range":42675.79330995643,"height":35778.563922233865,"velocity":3.075214226134812},"x":-289,"y":77,"dx":-0.814340181358015,"dy":2.9654329541649944},{"OBJECT_ID":"2013-020A","OBJECT_NAME":"CHINASAT 11","NORAD_CAT_ID":"39157","OBJECT_TYPE":"PAYLOAD","PERIOD":"1436.136","INCLINATION":"0.0128","APOGEE":"35789.356","PERIGEE":"35785.384","ECCENTRICITY":"4.71e-05","MEAN_MOTION":"1.00269027","TLE_LINE1":"1 39157U 13020A   16238.66004446 -.00000318 +00000-0 +00000-0 0  9994","TLE_LINE2":"2 39157 000.0128 147.6421 0000471 114.6080 047.7040 01.00269027012221","LAUNCH_DATE":"2013-05-01","LAUNCH_SITE":"Xichang Space Center, China","OWNER":"PEOPLES REPUBLIC OF CHINA","ORBIT_TYPE":"Geosynchronous","OPERATIONAL_STATUS":"Operational","satInfo":{"lng":52.36487937178621,"lat":-1.272128219145885,"elevation":-9.81377828085181,"azimuth":262.63512062821377,"range":42783.81283411074,"height":35790.000446376784,"velocity":3.074507935553205},"x":237,"y":-179,"dx":1.8773889313090741,"dy":-2.434750469016856}]